[{"OBJECT_NAME":"STARLINK-4566","OBJECT_ID":"2022-105AX","EPOCH":"2026-03-09T15:12:10.655424","MEAN_MOTION":15.05668872,"ECCENTRICITY":0.0002388,"INCLINATION":97.6042,"RA_OF_ASC_NODE":311.2454,"ARG_OF_PERICENTER":82.4569,"MEAN_ANOMALY":277.6929,"EPHEMERIS_TYPE":0,"CLASSIFICATION_TYPE":"U","NORAD_CAT_ID":53693,"ELEMENT_SET_NO":999,"REV_AT_EPOCH":19330,"BSTAR":-0.00030233,"MEAN_MOTION_DOT":-4.423e-5,"MEAN_MOTION_DDOT":0},{"OBJECT_NAME":"IRIDIUM 33 DEB","OBJECT_ID":"1997-051ABJ","EPOCH":"2026-03-07T11:02:11.153184","MEAN_MOTION":15.04355632,"ECCENTRICITY":0.00105712,"INCLINATION":86.348,"RA_OF_ASC_NODE":321.5871,"ARG_OF_PERICENTER":86.7515,"MEAN_ANOMALY":38.318,"EPHEMERIS_TYPE":0,"CLASSIFICATION_TYPE":"U","NORAD_CAT_ID":40996,"ELEMENT_SET_NO":999,"REV_AT_EPOCH":63758,"BSTAR":0.0045408492,"MEAN_MOTION_DOT":0.00063892,"MEAN_MOTION_DDOT":0}]
